start=new Date('2023-06-20T00:00:00.000Z').valueOf();
sats=[{"APOAPSIS":"540.508","TLE_LINE2":"2 51744  53.2170 103.4635 0001156  92.6330 267.4794 15.08852206 73432","CENTER_NAME":"EARTH","ECCENTRICITY":"0.00011560","TLE_LINE1":"1 51744U 22016AG  23170.22672310  .00000998  00000-0  80736-4 0  9992","LAUNCH_DATE":"2022-02-21","SITE":"AFETR","MEAN_MOTION":"15.08852206","REF_FRAME":"TEME","SEMIMAJOR_AXIS":"6917.843","RCS_SIZE":"LARGE","NORAD_CAT_ID":"51744","MEAN_ANOMALY":"267.4794","OBJECT_TYPE":"PAYLOAD","RA_OF_ASC_NODE":"103.4635","CLASSIFICATION_TYPE":"U","PERIOD":"95.437","MEAN_ELEMENT_THEORY":"SGP4","COUNTRY_CODE":"US","PERIAPSIS":"538.908","MEAN_MOTION_DDOT":"0.0000000000000","DECAY_DATE":null,"ARG_OF_PERICENTER":"92.6330","OBJECT_ID":"2022-016AG","MEAN_MOTION_DOT":"0.00000998","EPOCH":"2023-06-19T05:26:28.875840","FILE":"3937338","INCLINATION":"53.2170","REV_AT_EPOCH":"7343","ELEMENT_SET_NO":"999","OBJECT_NAME":"STARLINK-3452","TIME_SYSTEM":"UTC","GP_ID":"234288462","EPHEMERIS_TYPE":"0","BSTAR":"0.00008073600000"},{"OBJECT_ID":"2022-016AH","MEAN_MOTION_DOT":"-0.00000558","FILE":"3937338","EPOCH":"2023-06-19T12:03:55.697472","INCLINATION":"53.2169","REV_AT_EPOCH":"7347","ELEMENT_SET_NO":"999","TIME_SYSTEM":"UTC","OBJECT_NAME":"STARLINK-3449","GP_ID":"234287717","EPHEMERIS_TYPE":"0","BSTAR":"-0.00001695300000","RA_OF_ASC_NODE":"102.1969","CLASSIFICATION_TYPE":"U","PERIOD":"95.437","COUNTRY_CODE":"US","MEAN_ELEMENT_THEORY":"SGP4","PERIAPSIS":"539.039","MEAN_MOTION_DDOT":"0.0000000000000","DECAY_DATE":null,"ARG_OF_PERICENTER":"88.4360","MEAN_MOTION":"15.08843509","SEMIMAJOR_AXIS":"6917.870","REF_FRAME":"TEME","NORAD_CAT_ID":"51745","RCS_SIZE":"LARGE","OBJECT_TYPE":"PAYLOAD","MEAN_ANOMALY":"271.6747","APOAPSIS":"540.431","TLE_LINE2":"2 51745  53.2169 102.1969 0001006  88.4360 271.6747 15.08843509 73472","CENTER_NAME":"EARTH","ECCENTRICITY":"0.00010060","TLE_LINE1":"1 51745U 22016AH  23170.50272798 -.00000558  00000-0 -16953-4 0  9994","LAUNCH_DATE":"2022-02-21","SITE":"AFETR"},{"MEAN_MOTION_DDOT":"0.0000000000000","PERIAPSIS":"538.960","ARG_OF_PERICENTER":"101.4978","DECAY_DATE":null,"COUNTRY_CODE":"US","MEAN_ELEMENT_THEORY":"SGP4","PERIOD":"95.437","RA_OF_ASC_NODE":"92.1337","CLASSIFICATION_TYPE":"U","BSTAR":"0.00005179000000","GP_ID":"234287967","OBJECT_NAME":"STARLINK-3502","TIME_SYSTEM":"UTC","EPHEMERIS_TYPE":"0","EPOCH":"2023-06-19T12:27:49.435488","FILE":"3937338","REV_AT_EPOCH":"7361","ELEMENT_SET_NO":"999","INCLINATION":"53.2166","OBJECT_ID":"2022-016AJ","MEAN_MOTION_DOT":"0.00000537","SITE":"AFETR","CENTER_NAME":"EARTH","ECCENTRICITY":"0.00010850","LAUNCH_DATE":"2022-02-21","TLE_LINE1":"1 51746U 22016AJ  23170.51932217  .00000537  00000-0  51790-4 0  9998","APOAPSIS":"540.461","TLE_LINE2":"2 51746  53.2166  92.1337 0001085 101.4978 258.6136 15.08851416 73614","MEAN_ANOMALY":"258.6136","OBJECT_TYPE":"PAYLOAD","NORAD_CAT_ID":"51746","RCS_SIZE":"LARGE","REF_FRAME":"TEME","SEMIMAJOR_AXIS":"6917.845","MEAN_MOTION":"15.08851416"},{"NORAD_CAT_ID":"51747","RCS_SIZE":"LARGE","OBJECT_TYPE":"PAYLOAD","MEAN_ANOMALY":"271.3216","MEAN_MOTION":"15.08845268","REF_FRAME":"TEME","SEMIMAJOR_AXIS":"6917.864","LAUNCH_DATE":"2022-02-21","TLE_LINE1":"1 51747U 22016AK  23170.23136802  .00000163  00000-0  28298-4 0  9996","ECCENTRICITY":"0.00012280","CENTER_NAME":"EARTH","SITE":"AFETR","TLE_LINE2":"2 51747  53.2171 103.4638 0001228  88.7917 271.3216 15.08845268 73439","APOAPSIS":"540.579","EPHEMERIS_TYPE":"0","GP_ID":"234288219","TIME_SYSTEM":"UTC","OBJECT_NAME":"STARLINK-3446","BSTAR":"0.00002829800000","MEAN_MOTION_DOT":"0.00000163","OBJECT_ID":"2022-016AK","REV_AT_EPOCH":"7343","ELEMENT_SET_NO":"999","INCLINATION":"53.2171","EPOCH":"2023-06-19T05:33:10.196928","FILE":"3937338","ARG_OF_PERICENTER":"88.7917","DECAY_DATE":null,"MEAN_MOTION_DDOT":"0.0000000000000","PERIAPSIS":"538.880","PERIOD":"95.437","CLASSIFICATION_TYPE":"U","RA_OF_ASC_NODE":"103.4638","MEAN_ELEMENT_THEORY":"SGP4","COUNTRY_CODE":"US"},{"MEAN_ELEMENT_THEORY":"SGP4","COUNTRY_CODE":"US","CLASSIFICATION_TYPE":"U","RA_OF_ASC_NODE":"92.1583","PERIOD":"95.437","DECAY_DATE":null,"ARG_OF_PERICENTER":"113.5431","PERIAPSIS":"539.041","MEAN_MOTION_DDOT":"0.0000000000000","INCLINATION":"53.2158","REV_AT_EPOCH":"7361","ELEMENT_SET_NO":"999","EPOCH":"2023-06-19T12:15:50.927904","FILE":"3937338","MEAN_MOTION_DOT":"-0.00000594","OBJECT_ID":"2022-016AL","BSTAR":"-0.00001922400000","EPHEMERIS_TYPE":"0","TIME_SYSTEM":"UTC","OBJECT_NAME":"STARLINK-3501","GP_ID":"234288962","TLE_LINE2":"2 51748  53.2158  92.1583 0000995 113.5431 246.5666 15.08845293 73617","APOAPSIS":"540.418","SITE":"AFETR","LAUNCH_DATE":"2022-02-21","TLE_LINE1":"1 51748U 22016AL  23170.51100611 -.00000594  00000-0 -19224-4 0  9996","CENTER_NAME":"EARTH","ECCENTRICITY":"0.00009950","REF_FRAME":"TEME","SEMIMAJOR_AXIS":"6917.864","MEAN_MOTION":"15.08845293","MEAN_ANOMALY":"246.5666","OBJECT_TYPE":"PAYLOAD","NORAD_CAT_ID":"51748","RCS_SIZE":"LARGE"},{"COUNTRY_CODE":"US","MEAN_ELEMENT_THEORY":"SGP4","CLASSIFICATION_TYPE":"U","RA_OF_ASC_NODE":"102.2186","PERIOD":"95.437","PERIAPSIS":"538.936","MEAN_MOTION_DDOT":"0.0000000000000","DECAY_DATE":null,"ARG_OF_PERICENTER":"86.5437","FILE":"3937338","EPOCH":"2023-06-19T12:56:56.768352","INCLINATION":"53.2174","REV_AT_EPOCH":"7347","ELEMENT_SET_NO":"999","OBJECT_ID":"2022-016AM","MEAN_MOTION_DOT":"0.00000768","BSTAR":"0.00006629700000","TIME_SYSTEM":"UTC","OBJECT_NAME":"STARLINK-3451","GP_ID":"234287218","EPHEMERIS_TYPE":"0","APOAPSIS":"540.502","TLE_LINE2":"2 51749  53.2174 102.2186 0001132  86.5437 273.5685 15.08848764 73478","SITE":"AFETR","CENTER_NAME":"EARTH","ECCENTRICITY":"0.00011320","TLE_LINE1":"1 51749U 22016AM  23170.53954593  .00000768  00000-0  66297-4 0  9998","LAUNCH_DATE":"2022-02-21","SEMIMAJOR_AXIS":"6917.854","REF_FRAME":"TEME","MEAN_MOTION":"15.08848764","MEAN_ANOMALY":"273.5685","OBJECT_TYPE":"PAYLOAD","RCS_SIZE":"LARGE","NORAD_CAT_ID":"51749"},{"MEAN_ELEMENT_THEORY":"SGP4","COUNTRY_CODE":"US","PERIOD":"95.437","RA_OF_ASC_NODE":"92.1917","CLASSIFICATION_TYPE":"U","MEAN_MOTION_DDOT":"0.0000000000000","PERIAPSIS":"539.025","ARG_OF_PERICENTER":"85.1012","DECAY_DATE":null,"FILE":"3937338","EPOCH":"2023-06-19T12:05:15.386784","REV_AT_EPOCH":"7361","ELEMENT_SET_NO":"999","INCLINATION":"53.2179","OBJECT_ID":"2022-016AN","MEAN_MOTION_DOT":"-0.00000210","BSTAR":"0.00000487240000","GP_ID":"234287468","TIME_SYSTEM":"UTC","OBJECT_NAME":"STARLINK-3505","EPHEMERIS_TYPE":"0","APOAPSIS":"540.430","TLE_LINE2":"2 51750  53.2179  92.1917 0001016  85.1012 275.0096 15.08845869 73611","SITE":"AFETR","ECCENTRICITY":"0.00010160","CENTER_NAME":"EARTH","LAUNCH_DATE":"2022-02-21","TLE_LINE1":"1 51750U 22016AN  23170.50365031 -.00000210  00000-0  48724-5 0  9999","SEMIMAJOR_AXIS":"6917.862","REF_FRAME":"TEME","MEAN_MOTION":"15.08845869","OBJECT_TYPE":"PAYLOAD","MEAN_ANOMALY":"275.0096","RCS_SIZE":"LARGE","NORAD_CAT_ID":"51750"},{"RA_OF_ASC_NODE":"92.1432","CLASSIFICATION_TYPE":"U","PERIOD":"95.437","COUNTRY_CODE":"US","MEAN_ELEMENT_THEORY":"SGP4","DECAY_DATE":null,"ARG_OF_PERICENTER":"97.7013","PERIAPSIS":"539.016","MEAN_MOTION_DDOT":"0.0000000000000","MEAN_MOTION_DOT":"-0.00000126","OBJECT_ID":"2022-016AP","INCLINATION":"53.2173","ELEMENT_SET_NO":"999","REV_AT_EPOCH":"7361","FILE":"3937338","EPOCH":"2023-06-19T12:21:09.139968","EPHEMERIS_TYPE":"0","TIME_SYSTEM":"UTC","OBJECT_NAME":"STARLINK-3506","GP_ID":"234288719","BSTAR":"0.00001016000000","TLE_LINE2":"2 51751  53.2173  92.1432 0001038  97.7013 262.4097 15.08843538 73614","APOAPSIS":"540.453","TLE_LINE1":"1 51751U 22016AP  23170.51468912 -.00000126  00000-0  10160-4 0  9991","LAUNCH_DATE":"2022-02-21","CENTER_NAME":"EARTH","ECCENTRICITY":"0.00010380","SITE":"AFETR","MEAN_MOTION":"15.08843538","REF_FRAME":"TEME","SEMIMAJOR_AXIS":"6917.870","RCS_SIZE":"LARGE","NORAD_CAT_ID":"51751","OBJECT_TYPE":"PAYLOAD","MEAN_ANOMALY":"262.4097"},{"DECAY_DATE":null,"ARG_OF_PERICENTER":"86.1416","PERIAPSIS":"538.934","MEAN_MOTION_DDOT":"0.0000000000000","COUNTRY_CODE":"US","MEAN_ELEMENT_THEORY":"SGP4","CLASSIFICATION_TYPE":"U","RA_OF_ASC_NODE":"92.2087","PERIOD":"95.437","BSTAR":"0.00011732000000","EPHEMERIS_TYPE":"0","OBJECT_NAME":"STARLINK-3511","TIME_SYSTEM":"UTC","GP_ID":"234257121","INCLINATION":"53.2179","ELEMENT_SET_NO":"999","REV_AT_EPOCH":"7473","EPOCH":"2023-06-19T11:59:57.077952","FILE":"3937043","MEAN_MOTION_DOT":"0.00001580","OBJECT_ID":"2022-016AQ","SITE":"AFETR","TLE_LINE1":"1 51752U 22016AQ  23170.49996618  .00001580  00000-0  11732-3 0  9997","LAUNCH_DATE":"2022-02-21","ECCENTRICITY":"0.00011360","CENTER_NAME":"EARTH","TLE_LINE2":"2 51752  53.2179  92.2087 0001136  86.1416 273.9706 15.08848347 74737","APOAPSIS":"540.506","OBJECT_TYPE":"PAYLOAD","MEAN_ANOMALY":"273.9706","RCS_SIZE":"LARGE","NORAD_CAT_ID":"51752","REF_FRAME":"TEME","SEMIMAJOR_AXIS":"6917.855","MEAN_MOTION":"15.08848347"},{"SITE":"AFETR","ECCENTRICITY":"0.00017500","CENTER_NAME":"EARTH","TLE_LINE1":"1 51753U 22016AR  23170.50733397 -.00000349  00000-0 -38046-5 0  9996","LAUNCH_DATE":"2022-02-21","APOAPSIS":"540.952","TLE_LINE2":"2 51753  53.2175  92.1764 0001750  81.8858 278.2332 15.08841419 73611","OBJECT_TYPE":"PAYLOAD","MEAN_ANOMALY":"278.2332","RCS_SIZE":"LARGE","NORAD_CAT_ID":"51753","REF_FRAME":"TEME","SEMIMAJOR_AXIS":"6917.876","MEAN_MOTION":"15.08841419","MEAN_MOTION_DDOT":"0.0000000000000","PERIAPSIS":"538.530","ARG_OF_PERICENTER":"81.8858","DECAY_DATE":null,"MEAN_ELEMENT_THEORY":"SGP4","COUNTRY_CODE":"US","PERIOD":"95.437","CLASSIFICATION_TYPE":"U","RA_OF_ASC_NODE":"92.1764","BSTAR":"-0.00000380460000","GP_ID":"234287718","TIME_SYSTEM":"UTC","OBJECT_NAME":"STARLINK-3507","EPHEMERIS_TYPE":"0","FILE":"3937338","EPOCH":"2023-06-19T12:10:33.655008","ELEMENT_SET_NO":"999","REV_AT_EPOCH":"7361","INCLINATION":"53.2175","OBJECT_ID":"2022-016AR","MEAN_MOTION_DOT":"-0.00000349"}];
